1 45572U 20025AT  23330.83215309 -.00000622  00000-0 -24206-4 0  9994
2 45572  53.0535 214.9138 0001526  91.8562 268.2601 15.04762010199290
1 45572U 20025AT  23330.89857198 -.00001446  00000-0 -82008-4 0  9997
2 45572  53.0535 214.6164 0001640 101.2953 258.8220 15.04759916199915
1 45572U 20025AT  23331.09783250 -.00000716  00000-0 -30820-4 0  9991
2 45572  53.0535 213.7244 0001639  90.1215 269.9961 15.04750680199946
1 45572U 20025AT  23331.09783250 -.00000716  00000-0 -30820-4 0  9991
2 45572  53.0535 213.7244 0001639  90.1215 269.9961 15.04750680199339
1 45572U 20025AT  23331.89486626  .00009006  00000-0  65051-3 0  9998
2 45572  53.0531 210.1554 0001604  97.0675 263.0496 15.04760446200060
1 45572U 20025AT  23331.96128520  .00009146  00000-0  66027-3 0  9991
2 45572  53.0530 209.8581 0001598  96.0879 264.0292 15.04761809199461
1 45572U 20025AT  23332.62547200  .00007455  00000-0  54177-3 0  9999
2 45572  53.0524 206.8843 0001589  96.6508 263.4662 15.04772727200173
1 45572U 20025AT  23332.82472749  .00008116  00000-0  58796-3 0  9992
2 45572  53.0528 205.9916 0001588  91.7287 268.3883 15.04776429200203
1 45572U 20025AT  23333.09039998  .00008591  00000-0  62109-3 0  9997
2 45572  53.0527 204.8019 0001581  91.1440 268.9729 15.04782330200249
1 45572U 20025AT  23333.09039998  .00008591  00000-0  62109-3 0  9997
2 45572  53.0527 204.8019 0001581  91.1440 268.9729 15.04782330199639
1 45572U 20025AT  23334.02021424  .00057971  00000-0  40372-2 0  9999
2 45572  53.0524 200.6379 0001327  82.8470 277.2669 15.04909980199770
1 45572U 20025AT  23335.08245816  .00097711  00000-0  66619-2 0  9997
2 45572  53.0523 195.8763 0002868  78.6272 281.5039 15.05417721199930
1 45572U 20025AT  23335.91667824 -.00008388  00000-0 -54501-3 0  9998
2 45572  53.0520 192.1328 0001292  85.2912 121.1493 15.06392330200068
1 45572U 20025AT  23336.58334491  .00028482  00000-0  19248-2 0  9996
2 45572  53.0526 189.1382 0001184 101.4286 122.3215 15.06371079  5600
1 45572U 20025AT  23336.91667824  .00007579  00000-0  52752-3 0  9994
2 45572  53.0527 187.6436 0001182  88.7742 143.6330 15.06374475  5658
1 45572U 20025AT  23337.25001157  .00019308  00000-0  13128-2 0  9999
2 45572  53.0527 186.1463 0001298  88.4767 152.5684 15.06365246200265
1 45572U 20025AT  23337.58334491  .00017052  00000-0  11613-2 0  9996
2 45572  53.0530 184.6493 0001410  95.2467 154.4402 15.06385846  5758
1 45572U 20025AT  23338.58334491  .00010052  00000-0  69275-3 0  9998
2 45572  53.0531 180.1603 0001410  96.3103 179.3970 15.06401853200460
1 45572U 20025AT  23338.66668981 -.00023053  00000-0 -15330-2 0  9990
2 45572  53.0532 179.7867 0001391  93.9913 273.9456 15.06417593  5716
1 45572U 20025AT  23338.91667824  .00014450  00000-0  98719-3 0  9995
2 45572  53.0530 178.6656 0001422  85.6138 198.7841 15.06392371  5752
1 45572U 20025AT  23338.99698032  .00006555  00000-0  45848-3 0  9990
2 45572  53.0545 178.2989 0001683 109.5624 250.5547 15.06403348201135
1 45572U 20025AT  23338.99698032  .00006555  00000-0  45848-3 0  9990
2 45572  53.0545 178.2989 0001683 109.5624 250.5547 15.06403348200527
1 45572U 20025AT  23339.92582881  .00004318  00000-0  30849-3 0  9998
2 45572  53.0529 174.1328 0001322  90.6022 269.5118 15.06411306201273
1 45572U 20025AT  23339.99217512  .00004322  00000-0  30875-3 0  9995
2 45572  53.0525 173.8360 0001317  92.2853 267.8287 15.06411440201283
1 45572U 20025AT  23339.99217512  .00004322  00000-0  30875-3 0  9995
2 45572  53.0525 173.8360 0001317  92.2853 267.8287 15.06411440200675
1 45572U 20025AT  23341.51814799  .00004620  00000-0  32876-3 0  9990
2 45572  53.0517 166.9833 0001627 102.6968 257.4203 15.06408804201518
1 45572U 20025AT  23341.51814799  .00004620  00000-0  32876-3 0  9990
2 45572  53.0517 166.9833 0001627 102.6968 257.4203 15.06408804200900
1 45572U 20025AT  23342.64603686  .00004044  00000-0  29015-3 0  9997
2 45572  53.0561 161.9185 0000552 153.8220 206.2797 15.06410810201078
1 45572U 20025AT  23342.91142761  .00001030  00000-0  88014-4 0  9996
2 45572  53.0540 160.7291 0001033  96.3241 263.7866 15.06403043201726
1 45572U 20025AT  23342.91142761  .00001030  00000-0  88014-4 0  9996
2 45572  53.0540 160.7291 0001033  96.3241 263.7866 15.06403043201119
1 45572U 20025AT  23343.90663178  .00001847  00000-0  14286-3 0  9991
2 45572  53.0500 156.2652 0002284  75.2663 284.8579 15.06403489201871
1 45572U 20025AT  23344.50375432  .00001841  00000-0  14245-3 0  9990
2 45572  53.0492 153.5838 0002648  79.1251 281.0036 15.06401616201964
1 45572U 20025AT  23344.50375432  .00001841  00000-0  14245-3 0  9990
2 45572  53.0492 153.5838 0002648  79.1251 281.0036 15.06401616201357
1 45572U 20025AT  23344.70279384  .00000405  00000-0  46059-4 0  9995
2 45572  53.0537 152.6852 0001500  99.8377 260.2781 15.06395716201996
1 45572U 20025AT  23344.70279384  .00000405  00000-0  46059-4 0  9995
2 45572  53.0537 152.6852 0001500  99.8377 260.2781 15.06395716201389
1 45572U 20025AT  23345.76434563  .00000934  00000-0  81599-4 0  9999
2 45572  53.0551 147.9193 0001440 101.3845 258.7305 15.06397454202153
1 45572U 20025AT  23345.76434563  .00000934  00000-0  81599-4 0  9999
2 45572  53.0551 147.9193 0001440 101.3845 258.7305 15.06397454201545
1 45572U 20025AT  23346.75954700  .00001998  00000-0  15296-3 0  9990
2 45572  53.0544 143.4545 0001303  90.7484 269.3654 15.06400440202307
1 45572U 20025AT  23347.62205180  .00002037  00000-0  15559-3 0  9995
2 45572  53.0543 139.5839 0001263  93.4213 266.6920 15.06404756202437
1 45572U 20025AT  23347.68839779  .00002186  00000-0  16557-3 0  9992
2 45572  53.0544 139.2859 0001276  92.3208 267.7927 15.06405849202447
1 45572U 20025AT  23347.68839779  .00002186  00000-0  16557-3 0  9992
2 45572  53.0544 139.2859 0001276  92.3208 267.7927 15.06405849201839
1 45572U 20025AT  23348.68360392  .00000033  00000-0  21107-4 0  9990
2 45572  53.0535 134.8199 0001350  82.8433 277.2710 15.06399213201983
1 45572U 20025AT  23349.61245505  .00001639  00000-0  12888-3 0  9990
2 45572  53.0539 130.6448 0001390  94.9343 265.1805 15.06402672202735
1 45572U 20025AT  23350.60766421  .00000191  00000-0  31738-4 0  9994
2 45572  53.0544 126.1788 0001264  96.0204 264.0930 15.06394942202880
1 45572U 20025AT  23350.60766421  .00000191  00000-0  31738-4 0  9994
2 45572  53.0544 126.1788 0001264  96.0204 264.0930 15.06394942202273
1 45572U 20025AT  23351.47016628 -.00006403  00000-0 -41099-3 0  9991
2 45572  53.0544 122.3058 0001244  98.8897 261.2232 15.06430879202406
1 45572U 20025AT  23351.60286298  .00001436  00000-0  11530-3 0  9994
2 45572  53.0545 121.7116 0001214  90.0042 270.1086 15.06400091203037
1 45572U 20025AT  23351.60286298  .00001436  00000-0  11530-3 0  9994
2 45572  53.0545 121.7116 0001214  90.0042 270.1086 15.06400091202429
1 45572U 20025AT  23352.46537855  .00001055  00000-0  89702-4 0  9991
2 45572  53.0553 117.8399 0001195  74.6157 285.4964 15.06395139202554
1 45572U 20025AT  23352.59807256  .00000889  00000-0  78564-4 0  9998
2 45572  53.0552 117.2436 0001227  82.9771 277.1357 15.06394248203183
1 45572U 20025AT  23352.66441956  .00000780  00000-0  71263-4 0  9996
2 45572  53.0550 116.9455 0001224  90.3275 269.7854 15.06393759203193
1 45572U 20025AT  23353.46057099  .00001699  00000-0  13289-3 0  9999
2 45572  53.0554 113.3701 0001265  92.1069 268.0065 15.06407364202708
1 45572U 20025AT  23353.59326446  .00002867  00000-0  21123-3 0  9992
2 45572  53.0545 112.7752 0001270  87.3644 272.7490 15.06409695203331
1 45572U 20025AT  23354.45578430 -.00000198  00000-0  56264-5 0  9992
2 45572  53.0549 108.9019 0001290  96.0508 264.0628 15.06391983202859
1 45572U 20025AT  23354.58847937 -.00000338  00000-0 -38305-5 0  9990
2 45572  53.0548 108.3069 0001342  87.1207 272.9936 15.06391200203484
1 45572U 20025AT  23355.51732582  .00001622  00000-0  12775-3 0  9999
2 45572  53.0559 104.1332 0001376 109.3477 250.7661 15.06408079203624
1 45572U 20025AT  23355.51732582  .00001622  00000-0  12775-3 0  9999
2 45572  53.0559 104.1332 0001376 109.3477 250.7661 15.06408079203017
1 45572U 20025AT  23356.51253864  .00001590  00000-0  12563-3 0  9990
2 45572  53.0548  99.6665 0001480 110.3287 249.7861 15.06395226203164
1 45572U 20025AT  23356.57888724  .00002047  00000-0  15626-3 0  9996
2 45572  53.0533  99.3709 0001084  99.7401 260.3710 15.06394081203780
1 45572U 20025AT  23357.50773677  .00005573  00000-0  39260-3 0  9997
2 45572  53.0549  95.2091 0001300  75.7690 284.3443 15.06413845203926
1 45572U 20025AT  23357.50773677  .00005573  00000-0  39260-3 0  9997
2 45572  53.0549  95.2091 0001300  75.7690 284.3443 15.06413845203319
1 45572U 20025AT  23358.50294731  .00000694  00000-0  65466-4 0  9994
2 45572  53.0545  90.7348 0001420  85.5040 274.6111 15.06395566203460
1 45572U 20025AT  23358.56929414  .00000341  00000-0  41774-4 0  9998
2 45572  53.0540  90.4370 0001333  90.1705 269.9437 15.06394073204089
1 45572U 20025AT  23359.49814357  .00011698  00000-0  80254-3 0  9992
2 45572  53.0539  86.2686 0001408  92.2969 267.8181 15.06418424203616
1 45572U 20025AT  23359.56448892  .00013588  00000-0  92875-3 0  9999
2 45572  53.0538  85.9709 0001360  87.1588 272.9556 15.06423451204232
1 45572U 20025AT  23360.49335514  .00002329  00000-0  17523-3 0  9997
2 45572  53.0543  81.8023 0001402  90.3155 269.7994 15.06391578204374
1 45572U 20025AT  23360.49335514  .00002329  00000-0  17523-3 0  9997
2 45572  53.0543  81.8023 0001402  90.3155 269.7994 15.06391578203766
1 45572U 20025AT  23361.48855797  .00014687  00000-0  10025-2 0  9996
2 45572  53.0542  77.3342 0001438 102.7203 257.3947 15.06412200204522
1 45572U 20025AT  23361.48855797  .00014687  00000-0  10025-2 0  9996
2 45572  53.0542  77.3342 0001438 102.7203 257.3947 15.06412200203914
1 45572U 20025AT  23362.41742087  .00002287  00000-0  17243-3 0  9990
2 45572  53.0541  73.1600 0001317 104.8539 255.2596 15.06390290204669
1 45572U 20025AT  23362.41742087  .00002287  00000-0  17243-3 0  9990
2 45572  53.0541  73.1600 0001317 104.8539 255.2596 15.06390290204052
